[{"OBJECT_NAME":"SUPERVIEW NEO-2 01","OBJECT_ID":"2022-082A","EPOCH":"2026-03-09T23:46:34.771008","MEAN_MOTION":15.24506379,"ECCENTRICITY":0.00017316,"INCLINATION":97.394,"RA_OF_ASC_NODE":80.2484,"ARG_OF_PERICENTER":88.8448,"MEAN_ANOMALY":271.2988,"EPHEMERIS_TYPE":0,"CLASSIFICATION_TYPE":"U","NORAD_CAT_ID":53128,"ELEMENT_SET_NO":999,"REV_AT_EPOCH":20309,"BSTAR":0.00036489892,"MEAN_MOTION_DOT":8.905e-5,"MEAN_MOTION_DDOT":0},{"OBJECT_NAME":"ATLAS CENTAUR 2","OBJECT_ID":"1963-047A","EPOCH":"2026-03-09T09:44:46.728096","MEAN_MOTION":14.12066161,"ECCENTRICITY":0.05477336,"INCLINATION":30.3512,"RA_OF_ASC_NODE":197.227,"ARG_OF_PERICENTER":77.7875,"MEAN_ANOMALY":288.3499,"EPHEMERIS_TYPE":0,"CLASSIFICATION_TYPE":"U","NORAD_CAT_ID":694,"ELEMENT_SET_NO":999,"REV_AT_EPOCH":13158,"BSTAR":0.00021795899,"MEAN_MOTION_DOT":1.862e-5,"MEAN_MOTION_DDOT":0}]
